ONEWEB-0120             
1 47266U 20100J   25331.88664863 -.00000372  00000+0 -10684-2 0  9995
2 47266  87.8953  30.6756 0001691  98.2263 261.9058 13.12441649238325
ONEWEB-0121             
1 47267U 20100K   25331.72268305 -.00000207  00000+0 -61163-3 0  9996
2 47267  87.8959  30.6751 0001986 100.0612 260.0741 13.12441808238218
ONEWEB-0122             
1 47268U 20100L   25331.87015847  .00000017  00000+0  11923-4 0  9991
2 47268  87.8959  30.6485 0001871  94.8133 265.3209 13.12441808238143
ONEWEB-0123             
1 47269U 20100M   25331.71295697  .00000140  00000+0  35253-3 0  9996
2 47269  87.8955  30.7065 0001691 102.9161 257.2157 13.12441205238263
ONEWEB-0124             
1 47270U 20100N   25331.93031471  .00000441  00000+0  11907-2 0  9993
2 47270  87.8952  30.6678 0001893 104.7129 255.4210 13.12442636238178
ONEWEB-0125             
1 47271U 20100P   25331.90759676 -.00000134  00000+0 -40876-3 0  9994
2 47271  87.8956  30.6342 0001706 108.1410 251.9905 13.12444182238232
ONEWEB-0126             
1 47272U 20100Q   25331.92883328  .00000475  00000+0  12841-2 0  9995
2 47272  87.8956  30.6534 0001708  97.7709 262.3613 13.12442406238309
ONEWEB-0127             
1 47273U 20100R   25331.89462115 -.00000362  00000+0 -10408-2 0  9993
2 47273  87.8950  30.6713 0001747  95.4153 264.7175 13.12442865238324
